[{"OBJECT_NAME":"STARLINK-34449","OBJECT_ID":"2025-130AD","EPOCH":"2025-11-14T02:20:51.641952","MEAN_MOTION":15.30249533,"ECCENTRICITY":0.00011622,"INCLINATION":53.1595,"RA_OF_ASC_NODE":265.5677,"ARG_OF_PERICENTER":121.9693,"MEAN_ANOMALY":238.1421,"EPHEMERIS_TYPE":0,"CLASSIFICATION_TYPE":"U","NORAD_CAT_ID":64465,"ELEMENT_SET_NO":999,"REV_AT_EPOCH":2300,"BSTAR":0.0025657715,"MEAN_MOTION_DOT":0.00076535,"MEAN_MOTION_DDOT":0},{"OBJECT_NAME":"STARLINK-34493","OBJECT_ID":"2025-133A","EPOCH":"2025-11-14T04:15:59.956128","MEAN_MOTION":15.39609847,"ECCENTRICITY":0.00014578,"INCLINATION":53.1609,"RA_OF_ASC_NODE":294.0101,"ARG_OF_PERICENTER":59.9204,"MEAN_ANOMALY":300.1946,"EPHEMERIS_TYPE":0,"CLASSIFICATION_TYPE":"U","NORAD_CAT_ID":64472,"ELEMENT_SET_NO":999,"REV_AT_EPOCH":2349,"BSTAR":0.0023589267,"MEAN_MOTION_DOT":0.00095109,"MEAN_MOTION_DDOT":0},{"OBJECT_NAME":"STARLINK-34492","OBJECT_ID":"2025-133B","EPOCH":"2025-11-14T07:16:44.607648","MEAN_MOTION":15.39592422,"ECCENTRICITY":0.00016615,"INCLINATION":53.1601,"RA_OF_ASC_NODE":293.3725,"ARG_OF_PERICENTER":77.9616,"MEAN_ANOMALY":282.1575,"EPHEMERIS_TYPE":0,"CLASSIFICATION_TYPE":"U","NORAD_CAT_ID":64473,"ELEMENT_SET_NO":999,"REV_AT_EPOCH":2351,"BSTAR":0.0017405436,"MEAN_MOTION_DOT":0.00069798,"MEAN_MOTION_DDOT":0},{"OBJECT_NAME":"STARLINK-34474","OBJECT_ID":"2025-133C","EPOCH":"2025-11-14T04:09:17.469504","MEAN_MOTION":15.39569023,"ECCENTRICITY":9.465e-5,"INCLINATION":53.1604,"RA_OF_ASC_NODE":293.9816,"ARG_OF_PERICENTER":76.744,"MEAN_ANOMALY":283.367,"EPHEMERIS_TYPE":0,"CLASSIFICATION_TYPE":"U","NORAD_CAT_ID":64474,"ELEMENT_SET_NO":999,"REV_AT_EPOCH":2347,"BSTAR":0.001652315,"MEAN_MOTION_DOT":0.00066155,"MEAN_MOTION_DDOT":0},{"OBJECT_NAME":"STARLINK-34523","OBJECT_ID":"2025-133D","EPOCH":"2025-11-14T05:36:35.199072","MEAN_MOTION":15.39633465,"ECCENTRICITY":0.00013696,"INCLINATION":53.1606,"RA_OF_ASC_NODE":293.6494,"ARG_OF_PERICENTER":120.3534,"MEAN_ANOMALY":239.7606,"EPHEMERIS_TYPE":0,"CLASSIFICATION_TYPE":"U","NORAD_CAT_ID":64475,"ELEMENT_SET_NO":999,"REV_AT_EPOCH":2348,"BSTAR":0.0013624901,"MEAN_MOTION_DOT":0.00054514,"MEAN_MOTION_DDOT":0},{"OBJECT_NAME":"STARLINK-34496","OBJECT_ID":"2025-133E","EPOCH":"2025-11-14T04:02:37.167072","MEAN_MOTION":15.39564821,"ECCENTRICITY":0.00018936,"INCLINATION":53.1619,"RA_OF_ASC_NODE":293.9536,"ARG_OF_PERICENTER":69.7471,"MEAN_ANOMALY":290.3737,"EPHEMERIS_TYPE":0,"CLASSIFICATION_TYPE":"U","NORAD_CAT_ID":64476,"ELEMENT_SET_NO":999,"REV_AT_EPOCH":2349,"BSTAR":0.0032568284,"MEAN_MOTION_DOT":0.00131909,"MEAN_MOTION_DDOT":0},{"OBJECT_NAME":"STARLINK-34375","OBJECT_ID":"2025-133F","EPOCH":"2025-11-14T05:29:53.762208","MEAN_MOTION":15.39614023,"ECCENTRICITY":0.00012654,"INCLINATION":53.1608,"RA_OF_ASC_NODE":293.62,"ARG_OF_PERICENTER":106.2608,"MEAN_ANOMALY":253.8536,"EPHEMERIS_TYPE":0,"CLASSIFICATION_TYPE":"U","NORAD_CAT_ID":64477,"ELEMENT_SET_NO":999,"REV_AT_EPOCH":2350,"BSTAR":0.0013470682,"MEAN_MOTION_DOT":0.00053853,"MEAN_MOTION_DDOT":0},{"OBJECT_NAME":"STARLINK-34490","OBJECT_ID":"2025-133G","EPOCH":"2025-11-14T05:23:11.419008","MEAN_MOTION":15.3956914,"ECCENTRICITY":6.866e-5,"INCLINATION":53.1606,"RA_OF_ASC_NODE":293.5887,"ARG_OF_PERICENTER":71.6052,"MEAN_ANOMALY":288.5028,"EPHEMERIS_TYPE":0,"CLASSIFICATION_TYPE":"U","NORAD_CAT_ID":64478,"ELEMENT_SET_NO":999,"REV_AT_EPOCH":2350,"BSTAR":0.001456365,"MEAN_MOTION_DOT":0.00058202,"MEAN_MOTION_DDOT":0},{"OBJECT_NAME":"STARLINK-34528","OBJECT_ID":"2025-133H","EPOCH":"2025-11-14T03:55:55.746624","MEAN_MOTION":15.39632112,"ECCENTRICITY":4.474e-5,"INCLINATION":53.1603,"RA_OF_ASC_NODE":293.922,"ARG_OF_PERICENTER":89.6771,"MEAN_ANOMALY":270.4286,"EPHEMERIS_TYPE":0,"CLASSIFICATION_TYPE":"U","NORAD_CAT_ID":64479,"ELEMENT_SET_NO":999,"REV_AT_EPOCH":2347,"BSTAR":0.0023418761,"MEAN_MOTION_DOT":0.0009448,"MEAN_MOTION_DDOT":0},{"OBJECT_NAME":"STARLINK-34518","OBJECT_ID":"2025-133J","EPOCH":"2025-11-14T02:15:45.976032","MEAN_MOTION":15.39663058,"ECCENTRICITY":7.788e-5,"INCLINATION":53.1599,"RA_OF_ASC_NODE":294.1981,"ARG_OF_PERICENTER":81.6367,"MEAN_ANOMALY":278.4727,"EPHEMERIS_TYPE":0,"CLASSIFICATION_TYPE":"U","NORAD_CAT_ID":64480,"ELEMENT_SET_NO":999,"REV_AT_EPOCH":2332,"BSTAR":0.0034636941,"MEAN_MOTION_DOT":0.00140935,"MEAN_MOTION_DDOT":0},{"OBJECT_NAME":"STARLINK-34526","OBJECT_ID":"2025-133K","EPOCH":"2025-11-13T09:01:18.094368","MEAN_MOTION":15.39526738,"ECCENTRICITY":9.98e-5,"INCLINATION":53.1597,"RA_OF_ASC_NODE":297.5353,"ARG_OF_PERICENTER":100.3716,"MEAN_ANOMALY":259.7401,"EPHEMERIS_TYPE":0,"CLASSIFICATION_TYPE":"U","NORAD_CAT_ID":64481,"ELEMENT_SET_NO":999,"REV_AT_EPOCH":2326,"BSTAR":0.001852,"MEAN_MOTION_DOT":0.00074175,"MEAN_MOTION_DDOT":0},{"OBJECT_NAME":"STARLINK-34527","OBJECT_ID":"2025-133L","EPOCH":"2025-11-14T05:16:02.072352","MEAN_MOTION":15.39594458,"ECCENTRICITY":9.274e-5,"INCLINATION":53.1608,"RA_OF_ASC_NODE":293.5572,"ARG_OF_PERICENTER":78.1456,"MEAN_ANOMALY":281.9653,"EPHEMERIS_TYPE":0,"CLASSIFICATION_TYPE":"U","NORAD_CAT_ID":64482,"ELEMENT_SET_NO":999,"REV_AT_EPOCH":2350,"BSTAR":0.0013529705,"MEAN_MOTION_DOT":0.00054057,"MEAN_MOTION_DDOT":0},{"OBJECT_NAME":"STARLINK-34420","OBJECT_ID":"2025-133M","EPOCH":"2025-11-14T03:36:20.837952","MEAN_MOTION":15.39587637,"ECCENTRICITY":0.0001349,"INCLINATION":53.1602,"RA_OF_ASC_NODE":293.8352,"ARG_OF_PERICENTER":52.9748,"MEAN_ANOMALY":307.1381,"EPHEMERIS_TYPE":0,"CLASSIFICATION_TYPE":"U","NORAD_CAT_ID":64483,"ELEMENT_SET_NO":999,"REV_AT_EPOCH":2349,"BSTAR":0.0021723757,"MEAN_MOTION_DOT":0.00087402,"MEAN_MOTION_DDOT":0},{"OBJECT_NAME":"STARLINK-34509","OBJECT_ID":"2025-133N","EPOCH":"2025-11-14T05:09:21.404448","MEAN_MOTION":15.39508949,"ECCENTRICITY":0.0003267,"INCLINATION":53.1608,"RA_OF_ASC_NODE":293.528,"ARG_OF_PERICENTER":28.3279,"MEAN_ANOMALY":331.7903,"EPHEMERIS_TYPE":0,"CLASSIFICATION_TYPE":"U","NORAD_CAT_ID":64484,"ELEMENT_SET_NO":999,"REV_AT_EPOCH":2350,"BSTAR":-0.00019392768,"MEAN_MOTION_DOT":-8.122e-5,"MEAN_MOTION_DDOT":0},{"OBJECT_NAME":"STARLINK-34409","OBJECT_ID":"2025-133P","EPOCH":"2025-11-14T06:37:01.769088","MEAN_MOTION":15.38230744,"ECCENTRICITY":0.00016486,"INCLINATION":53.1618,"RA_OF_ASC_NODE":293.1972,"ARG_OF_PERICENTER":75.4838,"MEAN_ANOMALY":284.6349,"EPHEMERIS_TYPE":0,"CLASSIFICATION_TYPE":"U","NORAD_CAT_ID":64485,"ELEMENT_SET_NO":999,"REV_AT_EPOCH":2351,"BSTAR":-0.0078911659,"MEAN_MOTION_DOT":-0.00290763,"MEAN_MOTION_DDOT":0},{"OBJECT_NAME":"STARLINK-34520","OBJECT_ID":"2025-133Q","EPOCH":"2025-11-14T03:29:09.017664","MEAN_MOTION":15.39681446,"ECCENTRICITY":8.644e-5,"INCLINATION":53.161,"RA_OF_ASC_NODE":293.8019,"ARG_OF_PERICENTER":92.5748,"MEAN_ANOMALY":267.5356,"EPHEMERIS_TYPE":0,"CLASSIFICATION_TYPE":"U","NORAD_CAT_ID":64486,"ELEMENT_SET_NO":999,"REV_AT_EPOCH":2349,"BSTAR":0.0014554039,"MEAN_MOTION_DOT":0.0005838,"MEAN_MOTION_DDOT":0}]
