STARLINK-34449          
1 64465U 25130AD  25318.09781993  .00076535  00000+0  25658-2 0  9994
2 64465  53.1595 265.5677 0001162 121.9693 238.1421 15.30249533 23005
STARLINK-34493          
1 64472U 25133A   25318.17777727  .00095109  00000+0  23589-2 0  9993
2 64472  53.1609 294.0101 0001457  59.9204 300.1946 15.39609847 23495
STARLINK-34492          
1 64473U 25133B   25318.30329407  .00069798  00000+0  17405-2 0  9992
2 64473  53.1601 293.3725 0001661  77.9616 282.1575 15.39592422 23516
STARLINK-34474          
1 64474U 25133C   25318.17311886  .00066155  00000+0  16523-2 0  9994
2 64474  53.1604 293.9816 0000946  76.7440 283.3670 15.39569023 23479
STARLINK-34523          
1 64475U 25133D   25318.23374073  .00054514  00000+0  13625-2 0  9995
2 64475  53.1606 293.6494 0001369 120.3534 239.7606 15.39633465 23488
STARLINK-34496          
1 64476U 25133E   25318.16848573  .00131909  00000+0  32568-2 0  9990
2 64476  53.1619 293.9536 0001893  69.7471 290.3737 15.39564821 23499
STARLINK-34375          
1 64477U 25133F   25318.22909447  .00053853  00000+0  13471-2 0  9999
2 64477  53.1608 293.6200 0001265 106.2608 253.8536 15.39614023 23508
STARLINK-34490          
1 64478U 25133G   25318.22443772  .00058202  00000+0  14564-2 0  9991
2 64478  53.1606 293.5887 0000686  71.6052 288.5028 15.39569140 23501
STARLINK-34528          
1 64479U 25133H   25318.16383966  .00094480  00000+0  23419-2 0  9990
2 64479  53.1603 293.9220 0000447  89.6771 270.4286 15.39632112 23478
STARLINK-34518          
1 64480U 25133J   25318.09428213  .00140935  00000+0  34637-2 0  9990
2 64480  53.1599 294.1981 0000778  81.6367 278.4727 15.39663058 23326
STARLINK-34526          
1 64481U 25133K   25317.37590387  .00074175  00000+0  18520-2 0  9998
2 64481  53.1597 297.5353 0000998 100.3716 259.7401 15.39526738 23263
STARLINK-34527          
1 64482U 25133L   25318.21946843  .00054057  00000+0  13530-2 0  9998
2 64482  53.1608 293.5572 0000927  78.1456 281.9653 15.39594458 23508
STARLINK-34420          
1 64483U 25133M   25318.15024118  .00087402  00000+0  21724-2 0  9998
2 64483  53.1602 293.8352 0001349  52.9748 307.1381 15.39587637 23493
STARLINK-34509          
1 64484U 25133N   25318.21483107 -.00008122  00000+0 -19393-3 0  9997
2 64484  53.1608 293.5280 0003267  28.3279 331.7903 15.39508949 23508
STARLINK-34409          
1 64485U 25133P   25318.27571492 -.00290763  00000+0 -78912-2 0  9994
2 64485  53.1618 293.1972 0001648  75.4838 284.6349 15.38230744 23514
STARLINK-34520          
1 64486U 25133Q   25318.14524326  .00058380  00000+0  14554-2 0  9992
2 64486  53.1610 293.8019 0000864  92.5748 267.5356 15.39681446 23490
